     2.10           N: GPS NAV DATA                         RINEX VERSION / TYPE
teqc  2008Oct2      WCDA Operator       20090116 00:18:48UTCPGM / RUN BY / DATE
Solaris x86 5.10|AMD64|cc SC5.8 -xarch=amd64|=+|=+          COMMENT
teqc  2008Oct2      WCDA Operator       20090115 02:18:36UTCCOMMENT
                                                            END OF HEADER
27 09  1 16  0  0  0.0 1.658359542489D-05 3.069544618484D-12 0.000000000000D+00
    1.110000000000D+02 3.868750000000D+01 4.213746948045D-09-2.388959144572D+00
    1.946464180946D-06 2.107719646301D-02 5.854293704033D-06 5.155201459885D+03
    4.320000000000D+05 2.700835466385D-07-1.216797527198D+00 7.823109626770D-08
    9.724286278870D-01 2.645312500000D+02-1.662351309525D+00-7.733893576282D-09
    4.625192657839D-10 1.000000000000D+00 1.514000000000D+03 0.000000000000D+00
    2.800000000000D+00 0.000000000000D+00-4.656612873077D-09 1.110000000000D+02
    4.248180000000D+05 4.000000000000D+00
10 09  1 15 23 59 44.0-9.577255696058D-06-5.684341886081D-13 0.000000000000D+00
    3.500000000000D+01-1.881250000000D+01 4.793413950646D-09 2.782402693578D+00
   -1.069158315659D-06 8.459915989079D-03 5.790963768959D-06 5.153769294739D+03
    4.319840000000D+05-8.195638656616D-08 3.055617494962D+00-7.264316082001D-08
    9.604695388401D-01 2.688125000000D+02 5.800432953029D-01-8.188912529648D-09
   -3.543004723225D-10 1.000000000000D+00 1.514000000000D+03 0.000000000000D+00
    2.000000000000D+00 0.000000000000D+00-2.793967723846D-09 3.500000000000D+01
    4.248180000000D+05 4.000000000000D+00
22 09  1 16  0  0  0.0 2.065724693239D-04-5.684341886081D-13 0.000000000000D+00
    1.800000000000D+01-1.903125000000D+01 5.116998857827D-09 3.025178880329D+00
   -9.946525096893D-07 4.940251586959D-03 5.649402737617D-06 5.153667989731D+03
    4.320000000000D+05 8.940696716309D-08 3.069025329338D+00-9.313225746155D-08
    9.421873316442D-01 2.602187500000D+02-1.813845532096D+00-8.390349491734D-09
   -3.425142670940D-10 1.000000000000D+00 1.514000000000D+03 0.000000000000D+00
    2.000000000000D+00 0.000000000000D+00-1.816079020500D-08 1.800000000000D+01
    4.248180000000D+05 4.000000000000D+00
24 09  1 15 23 59 44.0 1.578666269779D-04 2.955857780762D-12 0.000000000000D+00
    1.000000000000D+01 6.043750000000D+01 4.966278293997D-09-2.225699330202D+00
    3.190711140633D-06 7.046530838124D-03 6.863847374916D-06 5.153665967941D+03
    4.319840000000D+05-1.862645149231D-07 2.034535197575D+00 9.126961231232D-08
    9.510318110466D-01 2.431250000000D+02-6.419180664641D-01-8.266058600234D-09
    2.046513816944D-10 1.000000000000D+00 1.514000000000D+03 0.000000000000D+00
    2.000000000000D+00 0.000000000000D+00-1.396983861923D-09 1.000000000000D+01
    4.248180000000D+05 4.000000000000D+00
29 09  1 15 23 59 44.0-1.783762127161D-05 2.842170943040D-12 0.000000000000D+00
    1.700000000000D+01-1.446875000000D+01 4.421969907082D-09-7.863325028422D-01
   -6.929039955139D-07 3.228794783354D-03 1.118890941143D-05 5.153760198593D+03
    4.319840000000D+05-6.891787052155D-08 9.598547080185D-01 4.470348358154D-08
    9.598075962047D-01 1.641875000000D+02-1.341256081545D+00-7.953545582813D-09
    9.178953768839D-11 1.000000000000D+00 1.514000000000D+03 0.000000000000D+00
    2.000000000000D+00 0.000000000000D+00-8.847564458847D-09 1.700000000000D+01
    4.258080000000D+05 4.000000000000D+00
 8 09  1 16  0  0  0.0-1.865280792117D-04-1.591615728103D-12 0.000000000000D+00
    1.670000000000D+02 2.515625000000D+01 4.094456264824D-09-5.843400407710D-01
    1.169741153717D-06 1.051011960953D-02 5.768612027168D-06 5.153686267853D+03
    4.320000000000D+05 1.676380634308D-07-1.100121237677D+00-1.937150955200D-07
    9.866376234973D-01 2.802812500000D+02 2.971777662765D+00-8.066764584553D-09
    3.221562762449D-10 1.000000000000D+00 1.514000000000D+03 0.000000000000D+00
    2.800000000000D+00 0.000000000000D+00-4.190951585770D-09 1.670000000000D+02
    4.262580000000D+05 4.000000000000D+00
19 09  1 16  0  0  0.0 3.378000110388D-05-4.547473508865D-13 0.000000000000D+00
    6.800000000000D+01 3.375000000000D+00 4.474114936274D-09 2.222916061262D+00
    1.806765794754D-07 5.063098855317D-03 1.129321753979D-05 5.153779714584D+03
    4.320000000000D+05 6.705522537231D-08 1.008104114737D+00 8.940696716309D-08
    9.573286025218D-01 1.584687500000D+02-3.933003322518D-01-7.900329080417D-09
    3.285851154604D-11 1.000000000000D+00 1.514000000000D+03 0.000000000000D+00
    2.000000000000D+00 0.000000000000D+00-1.443549990654D-08 6.800000000000D+01
    4.273980000000D+05 4.000000000000D+00
 9 09  1 15 23 59 44.0 3.519561141729D-05 1.932676241267D-12 0.000000000000D+00
    1.400000000000D+01 2.587500000000D+01 4.474472094009D-09-8.516151753161D-01
    1.613050699234D-06 2.013282338157D-02 6.534159183502D-06 5.153651632309D+03
    4.319840000000D+05-2.644956111908D-07-1.192762662370D+00 2.123415470123D-07
    9.743959835267D-01 2.640625000000D+02 1.457390746129D+00-8.446423256003D-09
    3.132273328900D-10 1.000000000000D+00 1.514000000000D+03 0.000000000000D+00
    2.000000000000D+00 0.000000000000D+00-5.587935447693D-09 1.400000000000D+01
    4.275180000000D+05 4.000000000000D+00
14 09  1 16  0  0  0.0-1.677488908172D-04 5.229594535194D-12 0.000000000000D+00
    2.100000000000D+01 7.375000000000D+00 3.633008472243D-09 2.164740173134D+00
    2.756714820862D-07 4.438719479367D-03 9.786337614059D-06 5.153569086075D+03
    4.320000000000D+05-2.048909664154D-08-2.170389123042D+00-8.568167686462D-08
    9.889211859540D-01 2.058125000000D+02-2.100428860710D+00-7.620674574542D-09
   -5.428797559780D-11 1.000000000000D+00 1.514000000000D+03 0.000000000000D+00
    2.000000000000D+00 0.000000000000D+00-9.313225746155D-09 2.100000000000D+01
    4.297380000000D+05 4.000000000000D+00
28 09  1 16  0  0  0.0-2.375990152359D-05 0.000000000000D+00 0.000000000000D+00
    7.500000000000D+01-7.681250000000D+01 4.481972406427D-09-2.907875227167D+00
   -4.051253199577D-06 1.452645577956D-02 6.336718797684D-06 5.153636980057D+03
    4.320000000000D+05 1.285225152969D-07-8.143871988386D-02-1.154839992523D-07
    9.658851913495D-01 2.587812500000D+02-2.066026968396D+00-7.906043604165D-09
   -1.467918287546D-10 1.000000000000D+00 1.514000000000D+03 0.000000000000D+00
    2.800000000000D+00 0.000000000000D+00-1.024454832077D-08 7.500000000000D+01
    4.319280000000D+05 4.000000000000D+00
